[{"OBJECT_NAME":"SDA_1665","OBJECT_ID":"2025-230B","EPOCH":"2026-03-09T22:47:20.541984","MEAN_MOTION":13.85178901,"ECCENTRICITY":0.00037609,"INCLINATION":81.3004,"RA_OF_ASC_NODE":303.6398,"ARG_OF_PERICENTER":117.7881,"MEAN_ANOMALY":242.3658,"EPHEMERIS_TYPE":0,"CLASSIFICATION_TYPE":"U","NORAD_CAT_ID":65975,"ELEMENT_SET_NO":999,"REV_AT_EPOCH":2008,"BSTAR":-0.026076654,"MEAN_MOTION_DOT":-0.00029429,"MEAN_MOTION_DDOT":0},{"OBJECT_NAME":"FENGYUN 1C DEB","OBJECT_ID":"1999-025AHL","EPOCH":"2026-03-09T02:32:42.993024","MEAN_MOTION":14.06621547,"ECCENTRICITY":0.01000896,"INCLINATION":99.2295,"RA_OF_ASC_NODE":125.9728,"ARG_OF_PERICENTER":274.8975,"MEAN_ANOMALY":113.8878,"EPHEMERIS_TYPE":0,"CLASSIFICATION_TYPE":"U","NORAD_CAT_ID":30498,"ELEMENT_SET_NO":999,"REV_AT_EPOCH":96983,"BSTAR":0.0016488197,"MEAN_MOTION_DOT":2.814e-5,"MEAN_MOTION_DDOT":0}]
